{
  "type": "FeatureCollection",
  "features": [
    {
      "type": "Feature",
      "properties": {
        "norad_id": 28054,
        "name": "DMSP 5D-3 F16 (USA 172)",
        "group": "weather",
        "lat": 70.18135288163428,
        "lon": -10.391980025493474,
        "alt_km": 841.248866471672,
        "timestamp": "2025-12-24T03:53:29.284823+00:00",
        "meta_object_name": "DMSP 5D-3 F16 (USA 172)",
        "meta_object_id": "2003-048A",
        "meta_epoch": "2025-12-23T19:36:13.056192",
        "meta_mean_motion": 14.14427991,
        "meta_eccentricity": 0.0006252,
        "meta_inclination": 99.0038,
        "meta_ra_of_asc_node": 15.3606,
        "meta_arg_of_pericenter": 285.3695,
        "meta_mean_anomaly": 189.4921,
        "meta_ephemeris_type": 0,
        "meta_classification_type": "U",
        "meta_norad_cat_id": 28054,
        "meta_element_set_no": 999,
        "meta_rev_at_epoch": 14469,
        "meta_bstar": 7.7464e-05,
        "meta_mean_motion_dot": 1.03e-06,
        "meta_mean_motion_ddot": 0,
        "tle_line1": "1 28054U 03048A   25357.81681778  .00000103  00000+0  77464-4 0  9997",
        "tle_line2": "2 28054  99.0038  15.3606 0006252 285.3695 189.4921 14.14427991144694"
      },
      "geometry": {
        "type": "Point",
        "coordinates": [
          -10.391980025493474,
          70.18135288163428
        ]
      }
    },
    {
      "type": "Feature",
      "properties": {
        "norad_id": 28912,
        "name": "METEOSAT-9 (MSG-2)",
        "group": "weather",
        "lat": 5.748433174358925,
        "lon": -163.79767885946956,
        "alt_km": 35982.2390944841,
        "timestamp": "2025-12-24T03:53:29.284873+00:00",
        "meta_object_name": "METEOSAT-9 (MSG-2)",
        "meta_object_id": "2005-049B",
        "meta_epoch": "2025-12-23T18:29:06.029088",
        "meta_mean_motion": 1.00268078,
        "meta_eccentricity": 0.0059595,
        "meta_inclination": 8.9546,
        "meta_ra_of_asc_node": 55.8584,
        "meta_arg_of_pericenter": 281.8406,
        "meta_mean_anomaly": 77.1031,
        "meta_ephemeris_type": 0,
        "meta_classification_type": "U",
        "meta_norad_cat_id": 28912,
        "meta_element_set_no": 999,
        "meta_rev_at_epoch": 523,
        "meta_bstar": 0,
        "meta_mean_motion_dot": 1.44e-06,
        "meta_mean_motion_ddot": 0,
        "tle_line1": "1 28912U 05049B   25357.77020867  .00000144  00000+0  00000+0 0  9996",
        "tle_line2": "2 28912   8.9546  55.8584 0059595 281.8406  77.1031  1.00268078  5234"
      },
      "geometry": {
        "type": "Point",
        "coordinates": [
          -163.79767885946956,
          5.748433174358925
        ]
      }
    },
    {
      "type": "Feature",
      "properties": {
        "norad_id": 29522,
        "name": "DMSP 5D-3 F17 (USA 191)",
        "group": "weather",
        "lat": 32.18935935598008,
        "lon": -2.243005132447242,
        "alt_km": 847.2459612573793,
        "timestamp": "2025-12-24T03:53:29.284891+00:00",
        "meta_object_name": "DMSP 5D-3 F17 (USA 191)",
        "meta_object_id": "2006-050A",
        "meta_epoch": "2025-12-23T19:15:06.276672",
        "meta_mean_motion": 14.14924151,
        "meta_eccentricity": 0.000988,
        "meta_inclination": 98.7392,
        "meta_ra_of_asc_node": 2.9609,
        "meta_arg_of_pericenter": 191.8187,
        "meta_mean_anomaly": 168.2756,
        "meta_ephemeris_type": 0,
        "meta_classification_type": "U",
        "meta_norad_cat_id": 29522,
        "meta_element_set_no": 999,
        "meta_rev_at_epoch": 98761,
        "meta_bstar": 9.366e-05,
        "meta_mean_motion_dot": 1.38e-06,
        "meta_mean_motion_ddot": 0,
        "tle_line1": "1 29522U 06050A   25357.80215598  .00000138  00000+0  93660-4 0  9990",
        "tle_line2": "2 29522  98.7392   2.9609 0009880 191.8187 168.2756 14.14924151987614"
      },
      "geometry": {
        "type": "Point",
        "coordinates": [
          -2.243005132447242,
          32.18935935598008
        ]
      }
    },
    {
      "type": "Feature",
      "properties": {
        "norad_id": 32958,
        "name": "FENGYUN 3A",
        "group": "weather",
        "lat": -63.299917862794764,
        "lon": -44.887384437248876,
        "alt_km": 829.0399330205664,
        "timestamp": "2025-12-24T03:53:29.284904+00:00",
        "meta_object_name": "FENGYUN 3A",
        "meta_object_id": "2008-026A",
        "meta_epoch": "2025-12-23T12:58:13.024128",
        "meta_mean_motion": 14.19517741,
        "meta_eccentricity": 0.0007634,
        "meta_inclination": 98.6714,
        "meta_ra_of_asc_node": 296.8405,
        "meta_arg_of_pericenter": 275.4269,
        "meta_mean_anomaly": 84.6036,
        "meta_ephemeris_type": 0,
        "meta_classification_type": "U",
        "meta_norad_cat_id": 32958,
        "meta_element_set_no": 999,
        "meta_rev_at_epoch": 91048,
        "meta_bstar": 6.5349e-05,
        "meta_mean_motion_dot": 9.4e-07,
        "meta_mean_motion_ddot": 0,
        "tle_line1": "1 32958U 08026A   25357.54042852  .00000094  00000+0  65349-4 0  9998",
        "tle_line2": "2 32958  98.6714 296.8405 0007634 275.4269  84.6036 14.19517741910482"
      },
      "geometry": {
        "type": "Point",
        "coordinates": [
          -44.887384437248876,
          -63.299917862794764
        ]
      }
    },
    {
      "type": "Feature",
      "properties": {
        "norad_id": 35491,
        "name": "GOES 14",
        "group": "weather",
        "lat": -0.9479532205076356,
        "lon": 34.36624753999954,
        "alt_km": 35836.55933365295,
        "timestamp": "2025-12-24T03:53:29.284918+00:00",
        "meta_object_name": "GOES 14",
        "meta_object_id": "2009-033A",
        "meta_epoch": "2025-12-23T16:00:05.299200",
        "meta_mean_motion": 1.00097003,
        "meta_eccentricity": 6.11e-05,
        "meta_inclination": 1.2304,
        "meta_ra_of_asc_node": 85.2938,
        "meta_arg_of_pericenter": 188.8925,
        "meta_mean_anomaly": 301.646,
        "meta_ephemeris_type": 0,
        "meta_classification_type": "U",
        "meta_norad_cat_id": 35491,
        "meta_element_set_no": 999,
        "meta_rev_at_epoch": 483,
        "meta_bstar": 0,
        "meta_mean_motion_dot": 3.1e-07,
        "meta_mean_motion_ddot": 0,
        "tle_line1": "1 35491U 09033A   25357.66672800  .00000031  00000+0  00000+0 0  9996",
        "tle_line2": "2 35491   1.2304  85.2938 0000611 188.8925 301.6460  1.00097003  4833"
      },
      "geometry": {
        "type": "Point",
        "coordinates": [
          34.36624753999954,
          -0.9479532205076356
        ]
      }
    },
    {
      "type": "Feature",
      "properties": {
        "norad_id": 35951,
        "name": "DMSP 5D-3 F18 (USA 210)",
        "group": "weather",
        "lat": -71.84811348685356,
        "lon": 126.00981240180626,
        "alt_km": 856.6826712455877,
        "timestamp": "2025-12-24T03:53:29.284932+00:00",
        "meta_object_name": "DMSP 5D-3 F18 (USA 210)",
        "meta_object_id": "2009-057A",
        "meta_epoch": "2025-12-23T18:12:26.635968",
        "meta_mean_motion": 14.14776244,
        "meta_eccentricity": 0.0011751,
        "meta_inclination": 98.8847,
        "meta_ra_of_asc_node": 334.105,
        "meta_arg_of_pericenter": 33.6508,
        "meta_mean_anomaly": 326.5408,
        "meta_ephemeris_type": 0,
        "meta_classification_type": "U",
        "meta_norad_cat_id": 35951,
        "meta_element_set_no": 999,
        "meta_rev_at_epoch": 83478,
        "meta_bstar": 0.00015748,
        "meta_mean_motion_dot": 2.59e-06,
        "meta_mean_motion_ddot": 0,
        "tle_line1": "1 35951U 09057A   25357.75864162  .00000259  00000+0  15748-3 0  9998",
        "tle_line2": "2 35951  98.8847 334.1050 0011751  33.6508 326.5408 14.14776244834783"
      },
      "geometry": {
        "type": "Point",
        "coordinates": [
          126.00981240180626,
          -71.84811348685356
        ]
      }
    },
    {
      "type": "Feature",
      "properties": {
        "norad_id": 36411,
        "name": "EWS-G2 (GOES 15)",
        "group": "weather",
        "lat": 0.6670366975855775,
        "lon": -147.38455440007726,
        "alt_km": 35771.79687731489,
        "timestamp": "2025-12-24T03:53:29.284945+00:00",
        "meta_object_name": "EWS-G2 (GOES 15)",
        "meta_object_id": "2010-008A",
        "meta_epoch": "2025-12-23T20:16:18.409728",
        "meta_mean_motion": 1.00271063,
        "meta_eccentricity": 0.0005531,
        "meta_inclination": 0.8394,
        "meta_ra_of_asc_node": 86.0714,
        "meta_arg_of_pericenter": 178.5851,
        "meta_mean_anomaly": 193.404,
        "meta_ephemeris_type": 0,
        "meta_classification_type": "U",
        "meta_norad_cat_id": 36411,
        "meta_element_set_no": 999,
        "meta_rev_at_epoch": 5788,
        "meta_bstar": 0,
        "meta_mean_motion_dot": 5.9e-07,
        "meta_mean_motion_ddot": 0,
        "tle_line1": "1 36411U 10008A   25357.84465752  .00000059  00000+0  00000+0 0  9999",
        "tle_line2": "2 36411   0.8394  86.0714 0005531 178.5851 193.4040  1.00271063 57885"
      },
      "geometry": {
        "type": "Point",
        "coordinates": [
          -147.38455440007726,
          0.6670366975855775
        ]
      }
    }
  ]
}